         0.0000000        2.0062834    26554.6416453        0.7233327       18.6110000      195.4038000       64.7717000
       360.0000000        2.0062906    26554.5788011        0.7233315      199.1692309      195.3718510       64.7716963
       720.0000000        2.0062977    26554.5159576        0.7233303       19.7281027      195.3399019       64.7716927
      1080.0000000        2.0063048    26554.4531144        0.7233290      200.2876156      195.3079529       64.7716890
      1440.0000000        2.0063119    26554.3902726        0.7233278       20.8477694      195.2760039       64.7716854


 1 90027U RELEAS14 00051.03935584 +.00000209  00000 0  99999-4 0 1844                                                                                                                                                                                                                                                                                                                                                                                                                                                            
 2 90027  64.3871 233.3669 6991935 271.4388  16.5332  1.9699794003847                                                                                                                                                                                                                                                                                                                                                                                                                                                            

         0.0000000        1.9700877    26878.9067168        0.6991935       16.5332000      233.3669000       64.3871000
       360.0000000        1.9700871    26878.9116592        0.6991840      193.8347578      233.3395049       64.3870854
       720.0000000        1.9700870    26878.9132185        0.6991746       11.1362499      233.3121098       64.3870707
      1080.0000000        1.9700872    26878.9113442        0.6991651      188.4377770      233.2847148       64.3870561
      1440.0000000        1.9700878    26878.9060603        0.6991556        5.7393058      233.2573197       64.3870414


 1 90028U RELEAS14 00051.15714066 -.00000031  00000 0 -13568-4 0 0377                                                                                                                                                                                                                                                                                                                                                                                                                                                            
 2 90028  72.5158 115.6069 0011430 124.7615 235.4297 12.4439648802428                                                                                                                                                                                                                                                                                                                                                                                                                                                            

         0.0000000       12.4488095     7864.1192447        0.0011430      235.4297000      115.6069000       72.5158000
       360.0000000       12.4488095     7864.1192487        0.0011430      275.3863886      115.2480095       72.5158000
       720.0000000       12.4488095     7864.1192528        0.0011430      315.3430763      114.8891190       72.5158000
      1080.0000000       12.4488095     7864.1192568        0.0011430      355.2997628      114.5302285       72.5158000
      1440.0000000       12.4488095     7864.1192609        0.0011430       35.2564479      114.1713379       72.5158000


 1 90029U RELEAS14 00051.38558242 +.00000961  00000 0  44365-3 0 5319                                                                                                                                                                                                                                                                                                                                                                                                                                                            
 2 90029  98.7064 100.2836 0014146 119.4841 240.7749 14.2193618701011                                                                                                                                                                                                                                                                                                                                                                                                                                                            

         0.0000000       14.2278081     7194.1027785        0.0014146      240.7749000      100.2836000       98.7064000
       360.0000000       14.2278130     7194.1011277        0.0014146       80.5169481      100.5302992       98.7064000
       720.0000000       14.2278179     7194.0994768        0.0014146      280.2596771      100.7769986       98.7064000
      1080.0000000       14.2278228     7194.0978260        0.0014146      120.0031064      101.0236982       98.7064000
      1440.0000000       14.2278277     7194.0961752        0.0014146      319.7462440      101.2703980       98.7064000


 1 90030U RELEAS14 00051.38558242 +.01672663  94000-5  22520-2 0 0035                                                                                                                                                                                                                                                                                                                                                                                                                                                            
 2 90030  28.5475 124.9280 0081002 156.8669 205.7976 16.0204499601011                                                                                                                                                                                                                                                                                                                                                                                                                                                            

         0.0000000       16.0047049     6651.2538670        0.0081002      205.7976000      124.9280000       28.5475000
       360.0000000       16.0151669     6648.3569048        0.0078566      208.1081960      123.0278412       28.5475000
       720.0000000       16.0256380     6645.4605736        0.0076129      211.3599619      121.1248016       28.5475000
      1080.0000000       16.0361183     6642.5648735        0.0073693      215.5528978      119.2188811       28.5475000
      1440.0000000       16.0466076     6639.6698043        0.0071256      220.6870036      117.3100797       28.5475000


 1 90031U RELEAS14 00051.38558242 +.00168784  00000 0  70845-3 0 0046                                                                                                                                                                                                                                                                                                                                                                                                                                                            
 2 90031  63.9976   6.4832 7509563 239.3244 315.9903  2.0525984300303                                                                                                                                                                                                                                                                                                                                                                                                                                                            

         0.0000000        2.0527442    26152.4322678        0.7509563      315.9903000        6.4832000       63.9976000
       360.0000000        2.0536004    26145.1623121        0.7508780      140.7626774        6.4404328       63.9968732
       720.0000000        2.0544567    26137.8970343        0.7507997      325.6121493        6.3976483       63.9961463
      1080.0000000        2.0553129    26130.6374383        0.7507215      150.5385959        6.3548464       63.9954195
      1440.0000000        2.0561691    26123.3831739        0.7506432      335.5420524        6.3120273       63.9946926


 1 90032U RELEAS14 00051.38558242 +.00332394  00000 0  96401-4 0 0062                                                                                                                                                                                                                                                                                                                                                                                                                                                            
 2 90032  63.8221 352.9474 7190794 239.0801 307.3271  2.4861841700210                                                                                                                                                                                                                                                                                                                                                                                                                                                            

